[{"OBJECT_NAME":"STARLINK-34953","OBJECT_ID":"2025-179F","EPOCH":"2026-03-09T16:06:19.749888","MEAN_MOTION":15.05652216,"ECCENTRICITY":3.804e-5,"INCLINATION":97.6035,"RA_OF_ASC_NODE":112.9156,"ARG_OF_PERICENTER":88.9629,"MEAN_ANOMALY":271.1642,"EPHEMERIS_TYPE":0,"CLASSIFICATION_TYPE":"U","NORAD_CAT_ID":65240,"ELEMENT_SET_NO":999,"REV_AT_EPOCH":3197,"BSTAR":0.00026878177,"MEAN_MOTION_DOT":3.82e-5,"MEAN_MOTION_DDOT":0},{"OBJECT_NAME":"ATLAS 28E DEB","OBJECT_ID":"1990-031G","EPOCH":"2026-03-09T13:30:42.820704","MEAN_MOTION":15.01077751,"ECCENTRICITY":0.00267601,"INCLINATION":90.3468,"RA_OF_ASC_NODE":293.9289,"ARG_OF_PERICENTER":41.2715,"MEAN_ANOMALY":319.0536,"EPHEMERIS_TYPE":0,"CLASSIFICATION_TYPE":"U","NORAD_CAT_ID":20575,"ELEMENT_SET_NO":999,"REV_AT_EPOCH":38014,"BSTAR":0.00040945673,"MEAN_MOTION_DOT":5.29e-5,"MEAN_MOTION_DDOT":0}]
